$$SOE
2460728.500000000, A.D. 2025-Feb-22 00:00:00.0000, -4.042479792974367E+08, 1.618775752657661E+08, -2.639530056265806E+08,
2460735.500000000, A.D. 2025-Mar-01 00:00:00.0000, -4.078998215943679E+08, 1.531428651979827E+08, -2.631506179422973E+08,
2460742.500000000, A.D. 2025-Mar-08 00:00:00.0000, -4.114014728067741E+08, 1.443517436476994E+08, -2.622513416974048E+08,
2460749.500000000, A.D. 2025-Mar-15 00:00:00.0000, -4.147514484815819E+08, 1.355073812500827E+08, -2.612553861815463E+08,
2460756.500000000, A.D. 2025-Mar-22 00:00:00.0000, -4.179483086691229E+08, 1.266129755769036E+08, -2.601629910708827E+08,
2460763.500000000, A.D. 2025-Mar-29 00:00:00.0000, -4.209906593269388E+08, 1.176717488087467E+08, -2.589744266232478E+08,
2460770.500000000, A.D. 2025-Apr-05 00:00:00.0000, -4.238771520373213E+08, 1.086869462809320E+08, -2.576899939556057E+08,
2460777.500000000, A.D. 2025-Apr-12 00:00:00.0000, -4.266064839649539E+08, 9.966183600554065E+07, -2.563100252191145E+08,
2460784.500000000, A.D. 2025-Apr-19 00:00:00.0000, -4.291773982424458E+08, 9.059970828756021E+07, -2.548348837279730E+08,
2460791.500000000, A.D. 2025-Apr-26 00:00:00.0000, -4.315886845123464E+08, 8.150387523222847E+07, -2.532649640845213E+08,
2460798.500000000, A.D. 2025-May-03 00:00:00.0000, -4.338391795119350E+08, 7.237767016297549E+07, -2.516006923097873E+08,
2460805.500000000, A.D. 2025-May-10 00:00:00.0000, -4.359277676720538E+08, 6.322444695867702E+07, -2.498425259813172E+08,
2460812.500000000, A.D. 2025-May-17 00:00:00.0000, -4.378533816930717E+08, 5.404757926903829E+07, -2.479909543847078E+08,
2460819.500000000, A.D. 2025-May-24 00:00:00.0000, -4.396150029238486E+08, 4.485045955333012E+07, -2.460464986987851E+08,
2460826.500000000, A.D. 2025-May-31 00:00:00.0000, -4.412116611256273E+08, 3.563649825300248E+07, -2.440097122267342E+08,
2460833.500000000, A.D. 2025-Jun-07 00:00:00.0000, -4.426424340214174E+08, 2.640912430224371E+07, -2.418811805372239E+08,
2460840.500000000, A.D. 2025-Jun-14 00:00:00.0000, -4.439064489952603E+08, 1.717178630857559E+07, -2.396615213527970E+08,
2460847.500000000, A.D. 2025-Jun-21 00:00:00.0000, -4.450028857249003E+08, 7.927951131512791E+06, -2.373513845647696E+08,
2460854.500000000, A.D. 2025-Jun-28 00:00:00.0000, -4.459309766194583E+08, -1.318898375896394E+06, -2.349514525168947E+08,
2460861.500000000, A.D. 2025-Jul-05 00:00:00.0000, -4.466900065779518E+08, -1.056526430673206E+07, -2.324624402410522E+08,
2460868.500000000, A.D. 2025-Jul-12 00:00:00.0000, -4.472793132591208E+08, -1.980763412769344E+07, -2.298850956007535E+08,
2460875.500000000, A.D. 2025-Jul-19 00:00:00.0000, -4.476982876728382E+08, -2.904248117048364E+07, -2.272201994067049E+08,
2460882.500000000, A.D. 2025-Jul-26 00:00:00.0000, -4.479463748829874E+08, -3.826626524423445E+07, -2.244685655280711E+08,
2460889.500000000, A.D. 2025-Aug-02 00:00:00.0000, -4.480230747560528E+08, -4.747543334780359E+07, -2.216310410031415E+08,
2460896.500000000, A.D. 2025-Aug-09 00:00:00.0000, -4.479279427315328E+08, -5.666642049707327E+07, -2.187085061520575E+08,
2460903.500000000, A.D. 2025-Aug-16 00:00:00.0000, -4.476605905367075E+08, -6.583565073097227E+07, -2.157018747030842E+08,
2460910.500000000, A.D. 2025-Aug-23 00:00:00.0000, -4.472206865525611E+08, -7.497953828021434E+07, -2.126120939571121E+08,
2460917.500000000, A.D. 2025-Aug-30 00:00:00.0000, -4.466079555011828E+08, -8.409448818520662E+07, -2.094401449612550E+08,
2460924.500000000, A.D. 2025-Sep-06 00:00:00.0000, -4.458221788718258E+08, -9.317689536361390E+07, -2.061870424786664E+08,
2460931.500000000, A.D. 2025-Sep-13 00:00:00.0000, -4.448631977557390E+08, -1.022231446116274E+08, -2.028538348036802E+08,
2460938.500000000, A.D. 2025-Sep-20 00:00:00.0000, -4.437309148165979E+08, -1.112296131840627E+08, -1.994416038568695E+08,
2460945.500000000, A.D. 2025-Sep-27 00:00:00.0000, -4.424252943375350E+08, -1.201926728415876E+08, -1.959514654020015E+08,
2460952.500000000, A.D. 2025-Oct-04 00:00:00.0000, -4.409463623601174E+08, -1.291086908261800E+08, -1.923845691543688E+08,
2460959.500000000, A.D. 2025-Oct-11 00:00:00.0000, -4.392942072877534E+08, -1.379740307088324E+08, -1.887420988223973E+08,
2460966.500000000, A.D. 2025-Oct-18 00:00:00.0000, -4.374689806692583E+08, -1.467850533847834E+08, -1.850252721307338E+08,
2460973.500000000, A.D. 2025-Oct-25 00:00:00.0000, -4.354708980226604E+08, -1.555381182055955E+08, -1.812353408365519E+08,
2460980.500000000, A.D. 2025-Nov-01 00:00:00.0000, -4.333002396593332E+08, -1.642295842324778E+08, -1.773735907410217E+08,
2460987.500000000, A.D. 2025-Nov-08 00:00:00.0000, -4.309573514731693E+08, -1.728558116418917E+08, -1.734413417009603E+08,
2460994.500000000, A.D. 2025-Nov-15 00:00:00.0000, -4.284426455458545E+08, -1.814131633414684E+08, -1.694399476579649E+08,
2461001.500000000, A.D. 2025-Nov-22 00:00:00.0000, -4.257566001639498E+08, -1.898980065756655E+08, -1.653707967026110E+08,
2461008.500000000, A.D. 2025-Nov-29 00:00:00.0000, -4.228997593987735E+08, -1.983067133860077E+08, -1.612353110653753E+08,
2461015.500000000, A.D. 2025-Dec-06 00:00:00.0000, -4.198727345239217E+08, -2.066356600625842E+08, -1.570349468353139E+08,
2461022.500000000, A.D. 2025-Dec-13 00:00:00.0000, -4.166762068351370E+08, -2.148812289587003E+08, -1.527711937216732E+08,
2461029.500000000, A.D. 2025-Dec-20 00:00:00.0000, -4.133109283792129E+08, -2.230398116465540E+08, -1.484455750958824E+08,
2461036.500000000, A.D. 2025-Dec-27 00:00:00.0000, -4.097777216654124E+08, -2.311078108222173E+08, -1.440596480035358E+08,
2461043.500000000, A.D. 2026-Jan-03 00:00:00.0000, -4.060774798173389E+08, -2.390816415746359E+08, -1.396150030619094E+08,
2461050.500000000, A.D. 2026-Jan-10 00:00:00.0000, -4.022111670539501E+08, -2.469577326969527E+08, -1.351132643075780E+08,
2461057.500000000, A.D. 2026-Jan-17 00:00:00.0000, -3.981798192657642E+08, -2.547325281311621E+08, -1.305560890220907E+08,
2461064.500000000, A.D. 2026-Jan-24 00:00:00.0000, -3.939845446070118E+08, -2.624024885226322E+08, -1.259451675400778E+08,
2461071.500000000, A.D. 2026-Jan-31 00:00:00.0000, -3.896265240787836E+08, -2.699640928908788E+08, -1.212822230414493E+08,
2461078.500000000, A.D. 2026-Feb-07 00:00:00.0000, -3.851070120399470E+08, -2.774138404728593E+08, -1.165690113368236E+08,
2461085.500000000, A.D. 2026-Feb-14 00:00:00.0000, -3.804273363909230E+08, -2.847482527530259E+08, -1.118073206694694E+08,
2461092.500000000, A.D. 2026-Feb-21 00:00:00.0000, -3.755888980408244E+08, -2.919638751020226E+08, -1.069989715209759E+08,
2461099.500000000, A.D. 2026-Feb-28 00:00:00.0000, -3.705931707404934E+08, -2.990572768694071E+08, -1.021458162256465E+08,
2461106.500000000, A.D. 2026-Mar-07 00:00:00.0000, -3.654417033373503E+08, -3.060250518797972E+08, -9.724973836308520E+07,
2461113.500000000, A.D. 2026-Mar-14 00:00:00.0000, -3.601361216745540E+08, -3.128638216655323E+08, -9.231265237365352E+07,
2461120.500000000, A.D. 2026-Mar-21 00:00:00.0000, -3.546781283506805E+08, -3.195702385378208E+08, -8.733650332290915E+07,
2461127.500000000, A.D. 2026-Mar-28 00:00:00.0000, -3.490695023477377E+08, -3.261409874665706E+08, -8.232326654548697E+07,
2461134.500000000, A.D. 2026-Apr-04 00:00:00.0000, -3.433120991288100E+08, -3.325727877332492E+08, -7.727494719059645E+07,
2461141.500000000, A.D. 2026-Apr-11 00:00:00.0000, -3.374078509288301E+08, -3.388623947158684E+08, -7.219357972252204E+07,
2461148.500000000, A.D. 2026-Apr-18 00:00:00.0000, -3.313587670769330E+08, -3.450066018122075E+08, -6.708122739037570E+07,
2461155.500000000, A.D. 2026-Apr-25 00:00:00.0000, -3.251669343026029E+08, -3.510022424857730E+08, -6.193998166921532E+07,
2461162.500000000, A.D. 2026-May-02 00:00:00.0000, -3.188345169928558E+08, -3.568461924627798E+08, -5.677196167673242E+07,
2461169.500000000, A.D. 2026-May-09 00:00:00.0000, -3.123637572733966E+08, -3.625353721446321E+08, -5.157931358122616E+07,
2461176.500000000, A.D. 2026-May-16 00:00:00.0000, -3.057569745329682E+08, -3.680667490956117E+08, -4.636421002315533E+07,
2461183.500000000, A.D. 2026-May-23 00:00:00.0000, -2.990165643359492E+08, -3.734373395813218E+08, -4.112884947055000E+07,
2461190.500000000, A.D. 2026-May-30 00:00:00.0000, -2.921449987981205E+08, -3.786442088362058E+08, -3.587545529085396E+07,
2461197.500000000, A.D. 2026-Jun-06 00:00:00.0000, -2.851448287393862E+08, -3.836844733324783E+08, -3.060627477740079E+07,
2461204.500000000, A.D. 2026-Jun-13 00:00:00.0000, -2.780186839454197E+08, -3.885553048515807E+08, -2.532357845063570E+07,
2461211.500000000, A.D. 2026-Jun-20 00:00:00.0000, -2.707692720383565E+08, -3.932539334315077E+08, -2.002965934897819E+07,
2461218.500000000, A.D. 2026-Jun-27 00:00:00.0000, -2.633993776538399E+08, -3.977776495280477E+08, -1.472683218104166E+07,
2461225.500000000, A.D. 2026-Jul-04 00:00:00.0000, -2.559118619231239E+08, -4.021238061622994E+08, -9.417432402176857E+06,
2461232.500000000, A.D. 2026-Jul-11 00:00:00.0000, -2.483096620047115E+08, -4.062898211834801E+08, -4.103815249089837E+06,
2461239.500000000, A.D. 2026-Jul-18 00:00:00.0000, -2.405957905711621E+08, -4.102731796180186E+08, 1.211645261344939E+06,
2461246.500000000, A.D. 2026-Jul-25 00:00:00.0000, -2.327733352247342E+08, -4.140714360983083E+08, 6.526557367294878E+06,
2461253.500000000, A.D. 2026-Aug-01 00:00:00.0000, -2.248454577911632E+08, -4.176822174149054E+08, 1.183851262291464E+07,
2461260.500000000, A.D. 2026-Aug-08 00:00:00.0000, -2.168153932734325E+08, -4.211032252242119E+08, 1.714508696212274E+07,
2461267.500000000, A.D. 2026-Aug-15 00:00:00.0000, -2.086864480474890E+08, -4.243322384585856E+08, 2.244384176347384E+07,
2461274.500000000, A.D. 2026-Aug-22 00:00:00.0000, -2.004619980589807E+08, -4.273671142154819E+08, 2.773232508529152E+07,
2461281.500000000, A.D. 2026-Aug-29 00:00:00.0000, -1.921454893088037E+08, -4.302057884957972E+08, 3.300807316847010E+07,
2461288.500000000, A.D. 2026-Sep-05 00:00:00.0000, -1.837404384928773E+08, -4.328462796570505E+08, 3.826861177661195E+07,
$$EOE